GLOBALSTAR M057 [-]     
1 25943U 99058A   23319.94166723 -.00000037  00000+0  50796-3 0  9990
2 25943  51.9970 192.0211 0001440 264.1399  95.9286 12.24778868 95955
GLOBALSTAR M059 [-]     
1 25944U 99058B   23320.07718100 -.00000049  00000+0  46594-3 0  9993
2 25944  52.0036 333.8180 0000242 299.2702  72.8916 11.99954834 93274
GLOBALSTAR M031 [-]     
1 25946U 99058D   23319.61382309 -.00000163  00000+0 -73211-3 0  9995
2 25946  51.9969 278.9172 0002053  72.7346  97.9896 12.15998482 94035
GLOBALSTAR M034 [-]     
1 25962U 99062B   23319.52593132 -.00000098  00000+0 -26472-3 0  9990
2 25962  51.9871  78.1300 0014088  30.7832  49.9450 11.79417081 69993
GLOBALSTAR M029 [-]     
1 25963U 99062C   23319.25108098 -.00000034  00000+0  65228-3 0  9995
2 25963  51.9797 224.5837 0003570  59.9415 115.5927 11.99870373 99505
GLOBALSTAR M061 [-]     
1 25964U 99062D   23319.91940168  .00000005  00000+0  14032-2 0  9994
2 25964  51.9793 253.4710 0006013 324.3147 137.6013 11.76754335 52985
